{
  "norad_id": 40895,
  "name": "EXPRESS-AM8",
  "history": [
    {
      "epoch": "2026-03-27T21:36:21.117888",
      "apogee_km": 35788.03254334766,
      "perigee_km": 35785.12317802227,
      "latitude_deg": 0.0025600500356916744,
      "longitude_deg": 59.92346431990154,
      "semi_major_axis_km": 42164.71486068497,
      "eccentricity": 3.45e-05,
      "inclination_deg": 0.0092,
      "raan_deg": 223.4673,
      "arg_perigee_deg": 56.6227,
      "mean_anomaly_deg": 215.3106,
      "mean_motion_rev_day": 1.00271846
    }
  ]
}